{"type":"FeatureCollection","metadata":{"name":"Зоны доставки Вместе Вкуснее","creator":"Yandex Map Constructor"},"features":[{"type":"Feature","id":0,"geometry":{"type":"Polygon","coordinates":[[[47.19252139279846,56.13616590160953],[47.19530561650465,56.134429738372745],[47.20363119328688,56.13270425824965],[47.20641546039991,56.130695556931045],[47.21250943928174,56.127795464488095],[47.21886091022896,56.1258060178883],[47.2366707780879,56.12197064850334],[47.23825864582468,56.12355278490597],[47.24182061939642,56.12786737025482],[47.24431872929843,56.12813489818548],[47.24810429952759,56.129361141614204],[47.24586026389129,56.132097228601424],[47.246834879072836,56.133874539762736],[47.2475215245807,56.1352165455633],[47.248894815596245,56.139002665513814],[47.25114001733844,56.14350468791372],[47.25348675742976,56.14326759269068],[47.2542592336261,56.14492072319389],[47.254516725691545,56.14596287745952],[47.254366521986704,56.14652586853703],[47.254237775953996,56.146813350155256],[47.25519302108363,56.14910046803565],[47.25679161765649,56.15201092379669],[47.25272538878996,56.152454060202196],[47.25077274062713,56.15295707368605],[47.24004390456754,56.153891224029195],[47.234765317226234,56.153939128560275],[47.22989442565524,56.1542145784432],[47.22204091765958,56.15472954466383],[47.216182973171065,56.15464571342692],[47.21601131179407,56.15240615383211],[47.21453404837016,56.15026810514335],[47.21316075735454,56.14968121420161],[47.21367574148535,56.14859125001176],[47.21110082083113,56.14782466319427],[47.2121093314207,56.14475816236585],[47.21007085256942,56.14437483250166],[47.20638013296497,56.143296696638906],[47.19861245565784,56.14090073044354],[47.194266687641964,56.139289075302365],[47.19065048047819,56.13772527715438],[47.19252139279846,56.13616590160953]]]},"properties":{"description":"Зона бесплатной доставки","fill":"#e6761b","fill-opacity":0.3,"stroke":"#e6761b","stroke-width":"1","stroke-opacity":0.9}},{"type":"Feature","id":1,"geometry":{"type":"Polygon","coordinates":[[[47.23676470464506,56.121962932824864],[47.24380282110015,56.1211478671944],[47.24697855657379,56.121843071313],[47.248738085687535,56.12053655658137],[47.252965247094984,56.11846881606946],[47.25529340451987,56.11757875427594],[47.26375845617091,56.11987728912003],[47.2751310223941,56.122849896300664],[47.27895048803126,56.126709146957225],[47.280023371637256,56.12776378135006],[47.28148249334135,56.12912996909197],[47.28448656743799,56.132053926448194],[47.27916506475245,56.13593621332128],[47.27822092717924,56.136774927291526],[47.278135096490765,56.14599956854234],[47.283520972192676,56.145161056644945],[47.287329708993816,56.146969823662026],[47.288762008607776,56.14767054817555],[47.289336001336956,56.14904201459842],[47.28119281476767,56.149922362321185],[47.27191237157613,56.15031162527798],[47.26846841520101,56.150281682118106],[47.26500300115383,56.15007207932251],[47.261569773614795,56.15014394327535],[47.25425270742213,56.1468320728891],[47.25457457250392,56.145388654541],[47.253501688897956,56.14314855312884],[47.2511842603091,56.143507936528216],[47.24976805394922,56.140896340424696],[47.24762228673736,56.13516937303618],[47.2469463700656,56.133833356791556],[47.24592914229669,56.13211196892054],[47.24834514206684,56.129288006287844],[47.24442241138255,56.12814577952611],[47.24189845269958,56.127778761739684],[47.238309657037654,56.12344918433218],[47.23676470464506,56.121962932824864]]]},"properties":{"description":"Зона бесплатной доставки","fill":"#ed4543","fill-opacity":0.3,"stroke":"#ed4543","stroke-width":"1","stroke-opacity":0.9}},{"type":"Feature","id":2,"geometry":{"type":"Polygon","coordinates":[[[47.212162444493316,56.14470579101228],[47.21123225019462,56.14779872109493],[47.21379214205375,56.148546290651204],[47.21325640595357,56.149602765835816],[47.21462774222359,56.150243976032876],[47.216095638018196,56.15236431642368],[47.21239418957764,56.15410687469547],[47.2081884858423,56.15462184235213],[47.16982273551454,56.154197273805465],[47.16279328289043,56.153561820240036],[47.16039002361308,56.14927408489589],[47.15858757915507,56.14441087627488],[47.15978920879375,56.14146390242838],[47.15527695211158,56.14240585771083],[47.15368908437475,56.14132766638953],[47.14909714254125,56.139746264185796],[47.14544933828101,56.13653533753934],[47.14304607900366,56.13550490847624],[47.14059990438204,56.13111928397473],[47.1402673104642,56.128381009612575],[47.15023439916353,56.12895025125711],[47.159439740502656,56.1294655574533],[47.167700944268525,56.126247776209254],[47.17574757131318,56.12765596327816],[47.17364471944551,56.12994490582352],[47.16815155538305,56.13174240878473],[47.17248600515112,56.13457030930407],[47.19070356878027,56.13769753237653],[47.19395876510201,56.13922381784995],[47.19867308312796,56.14089380525739],[47.21000273400688,56.14431999143073],[47.212162444493316,56.14470579101228]]]},"properties":{"description":"Зона бесплатной доставки","fill":"#1e98ff","fill-opacity":0.3,"stroke":"#1e98ff","stroke-width":"1","stroke-opacity":0.9}}]}